NORAD_CAT_ID,OBJECT_NAME,OBJECT_TYPE,EPOCH,MEAN_MOTION,ECCENTRICITY,INCLINATION,RA_OF_ASC_NODE,ARG_OF_PERICENTER,MEAN_ANOMALY,BSTAR,MEAN_MOTION_DOT,MEAN_MOTION_DDOT,TLE_LINE0,TLE_LINE1,TLE_LINE2,SEMIMAJOR_AXIS,PERIOD,APOGEE,PERIGEE,DECAYED
51883.0,STARLINK-3576,PAYLOAD,2023-01-14 13:47:20,15.0883788,0.0002116,53.2166,122.1912,39.6467,320.468,0.00014933,2.089e-05,0.0,0 STARLINK-3576,1 51883U 22022AH  23014.57454593  .00002089  00000-0  14933-3 0  9997,2 51883  53.2166 122.1912 0002116  39.6467 320.4680 15.08837880 49614,6917.887,95.438,541.216,538.288,0.0
51883.0,STARLINK-3576,PAYLOAD,2023-01-15 13:38:08,15.08833962,0.0002032999999999,53.216,117.7316,44.8789,315.2367,0.00010975,1.459e-05,0.0,0 STARLINK-3576,1 51883U 22022AH  23015.56815967  .00001459  00000-0  10975-3 0  9995,2 51883  53.2160 117.7316 0002033  44.8789 315.2367 15.08833962 49766,6917.899,95.438,541.17,538.357,0.0
51883.0,STARLINK-3576,PAYLOAD,2023-01-15 15:13:31,15.08840568,0.0001875,53.2165,117.4331,48.6509,311.4644,0.00019729,2.853e-05,0.0,0 STARLINK-3576,1 51883U 22022AH  23015.63439452  .00002853  00000-0  19729-3 0  9999,2 51883  53.2165 117.4331 0001875  48.6509 311.4644 15.08840568 49777,6917.879,95.438,541.0409999999999,538.447,0.0
51883.0,STARLINK-3576,PAYLOAD,2023-01-15 23:10:28,15.08836625,0.0001874,53.2157,115.9448,50.9884,309.1275,0.00016568,2.349e-05,0.0,0 STARLINK-3576,1 51883U 22022AH  23015.96560218  .00002349  00000-0  16568-3 0  9998,2 51883  53.2157 115.9448 0001874  50.9884 309.1275 15.08836625 49820,6917.891,95.438,541.052,538.4590000000001,0.0
51883.0,STARLINK-3576,PAYLOAD,2023-01-16 13:28:55,15.08848486,0.0001934,53.2158,113.2768,62.253,297.8658,0.00039418,5.992e-05,0.0,0 STARLINK-3576,1 51883U 22022AH  23016.56175651  .00005992  00000-0  39418-3 0  9994,2 51883  53.2158 113.2768 0001934  62.2530 297.8658 15.08848486 49914,6917.854,95.437,541.057,538.382,0.0
51883.0,STARLINK-3576,PAYLOAD,2023-01-16 15:04:17,15.08862928,0.0001896,53.2157,112.9733,51.7945,308.3217,0.00038844,5.903e-05,0.0,0 STARLINK-3576,1 51883U 22022AH  23016.62798552  .00005903  00000-0  38844-3 0  9996,2 51883  53.2157 112.9733 0001896  51.7945 308.3217 15.08862928 49928,6917.81,95.436,540.987,538.364,0.0
51883.0,STARLINK-3576,PAYLOAD,2023-01-17 00:36:38,15.08824457,0.0002072,53.2145,111.1914,61.1454,298.9746,-5.2915e-05,-1.13e-05,0.0,0 STARLINK-3576,1 51883U 22022AH  23017.02544862 -.00001130  00000-0 -52915-4 0  9990,2 51883  53.2145 111.1914 0002072  61.1454 298.9746 15.08824457 49986,6917.928000000001,95.439,541.226,538.36,0.0
51883.0,STARLINK-3576,PAYLOAD,2023-01-17 08:33:35,15.08812743,0.0001575999999999,53.215,109.7029,69.3057,290.8104,-0.00040762,-6.765e-05,0.0,0 STARLINK-3576,1 51883U 22022AH  23017.35665684 -.00006765  00000-0 -40762-3 0  9997,2 51883  53.2150 109.7029 0001576  69.3057 290.8104 15.08812743 50031,6917.964,95.439,540.919,538.738,0.0
51883.0,STARLINK-3576,PAYLOAD,2023-01-18 00:27:26,15.0882604,0.0001112,53.2173,106.7257,91.1701,268.9419,-9.4331e-05,-1.788e-05,0.0,0 STARLINK-3576,1 51883U 22022AH  23018.01905453 -.00001788  00000-0 -94331-4 0  9994,2 51883  53.2173 106.7257 0001112  91.1701 268.9419 15.08826040 50132,6917.923000000001,95.438,540.557,539.019,0.0
51883.0,STARLINK-3576,PAYLOAD,2023-01-18 08:24:21,15.08851828,0.0001498,53.2154,105.2424,75.4466,284.6692,0.00029281,4.377e-05,0.0,0 STARLINK-3576,1 51883U 22022AH  23018.35024585  .00004377  00000-0  29281-3 0  9995,2 51883  53.2154 105.2424 0001498  75.4466 284.6692 15.08851828 50186,6917.844,95.437,540.746,538.673,0.0
51883.0,STARLINK-3576,PAYLOAD,2023-01-18 13:10:30,15.0886492,0.0001804,53.2162,104.35,63.3711,296.7466,0.0002876,4.295e-05,0.0,0 STARLINK-3576,1 51883U 22022AH  23018.54895851  .00004295  00000-0  28760-3 0  9998,2 51883  53.2162 104.3500 0001804  63.3711 296.7466 15.08864920 50214,6917.804,95.436,540.9169999999999,538.4209999999999,0.0
51883.0,STARLINK-3576,PAYLOAD,2023-01-19 05:04:22,15.08831326,0.0001493,53.2157,101.3774,87.1467,272.9696,0.00035923,5.432e-05,0.0,0 STARLINK-3576,1 51883U 22022AH  23019.21137597  .00005432  00000-0  35923-3 0  9992,2 51883  53.2157 101.3774 0001493  87.1467 272.9696 15.08831326 50310,6917.906999999999,95.438,540.805,538.739,0.0
51883.0,STARLINK-3576,PAYLOAD,2023-01-19 11:25:54,15.088547,0.0001412,53.2154,100.1883,89.2104,270.905,0.00038897,5.91e-05,0.0,0 STARLINK-3576,1 51883U 22022AH  23019.47632540  .00005910  00000-0  38897-3 0  9992,2 51883  53.2154 100.1883 0001412  89.2104 270.9050 15.08854700 50354,6917.835,95.437,540.677,538.724,0.0
51883.0,STARLINK-3576,PAYLOAD,2023-01-19 13:01:17,15.08865284,0.0001468,53.2151,99.891,87.1618,272.9542,0.00056766,8.764e-05,0.0,0 STARLINK-3576,1 51883U 22022AH  23019.54256167  .00008764  00000-0  56766-3 0  9992,2 51883  53.2151  99.8910 0001468  87.1618 272.9542 15.08865284 50362,6917.803000000001,95.436,540.684,538.653,0.0
51883.0,STARLINK-3576,PAYLOAD,2023-01-20 00:08:59,15.08849254,0.000144,53.2161,97.8106,96.8841,263.2315,0.00044317,6.774e-05,0.0,0 STARLINK-3576,1 51883U 22022AH  23020.00624260  .00006774  00000-0  44317-3 0  9996,2 51883  53.2161  97.8106 0001440  96.8841 263.2315 15.08849254 50431,6917.852,95.437,540.7130000000001,538.721,0.0
51883.0,STARLINK-3576,PAYLOAD,2023-01-20 11:16:41,15.08847911,0.0001450999999999,53.2158,95.7274,107.0947,253.0204,0.0003666999999999,5.554e-05,0.0,0 STARLINK-3576,1 51883U 22022AH  23020.46992176  .00005554  00000-0  36670-3 0  9998,2 51883  53.2158  95.7274 0001451 107.0947 253.0204 15.08847911 50504,6917.856,95.437,540.725,538.717,0.0
51883.0,STARLINK-3576,PAYLOAD,2023-01-20 22:24:23,15.08843851,0.0001686999999999,53.2178,93.6473,84.7272,275.3913,0.00081872,0.00012767,0.0,0 STARLINK-3576,1 51883U 22022AH  23020.93360528  .00012767  00000-0  81872-3 0  9998,2 51883  53.2178  93.6473 0001687  84.7272 275.3913 15.08843851 50577,6917.869000000001,95.437,540.901,538.567,0.0
51883.0,STARLINK-3576,PAYLOAD,2023-01-22 04:36:43,15.08858869,0.000143,53.2156,87.9954,86.3538,273.7617,0.0016687,0.00026383,0.0,0 STARLINK-3576,1 51883U 22022AH  23022.19216559  .00026383  00000-0  16687-2 0  9992,2 51883  53.2156  87.9954 0001430  86.3538 273.7617 15.08858869 50761,6917.823,95.436,540.677,538.698,0.0
51883.0,STARLINK-3576,PAYLOAD,2023-01-22 12:33:38,15.08858301,0.0001277,53.2161,86.5089,73.5276,286.5857,0.00093721,0.00014667,0.0,0 STARLINK-3576,1 51883U 22022AH  23022.52336294  .00014667  00000-0  93721-3 0  9995,2 51883  53.2161  86.5089 0001277  73.5276 286.5857 15.08858301 50812,6917.8240000000005,95.436,540.573,538.806,0.0
51883.0,STARLINK-3576,PAYLOAD,2023-01-23 04:27:30,15.08839709,0.000161,53.2156,83.5354,83.7718,276.3457,0.0012755,0.0002006999999999,0.0,0 STARLINK-3576,1 51883U 22022AH  23023.18577078  .00020070  00000-0  12755-2 0  9997,2 51883  53.2156  83.5354 0001610  83.7718 276.3457 15.08839709 50918,6917.880999999999,95.438,540.86,538.632,0.0
51883.0,STARLINK-3576,PAYLOAD,2023-01-23 23:32:08,15.08848079,0.0001492,53.216,79.97,99.1716,260.9445,0.0010437,0.00016365,0.0,0 STARLINK-3576,1 51883U 22022AH  23023.98065170  .00016365  00000-0  10437-2 0  9997,2 51883  53.2160  79.9700 0001492  99.1716 260.9445 15.08848079 51034,6917.856,95.437,540.753,538.689,0.0
51883.0,STARLINK-3576,PAYLOAD,2023-01-24 10:39:50,15.08845978,0.0001343,53.216,77.8876,92.6396,267.4749,0.00035547,5.375e-05,0.0,0 STARLINK-3576,1 51883U 22022AH  23024.44433053  .00005375  00000-0  35547-3 0  9997,2 51883  53.2160  77.8876 0001343  92.6396 267.4749 15.08845978 51104,6917.861999999999,95.437,540.656,538.798,0.0
51883.0,STARLINK-3576,PAYLOAD,2023-01-24 23:22:55,15.08834581,0.0001307,53.2147,75.5064,101.6117,258.5022,5.2739e-05,5.51e-06,0.0,0 STARLINK-3576,1 51883U 22022AH  23024.97425485  .00000551  00000-0  52739-4 0  9999,2 51883  53.2147  75.5064 0001307 101.6117 258.5022 15.08834581 51186,6917.897,95.438,540.6659999999999,538.8580000000001,0.0
51883.0,STARLINK-3576,PAYLOAD,2023-01-25 13:41:24,15.08830436,0.0001281999999999,53.215,72.8271,113.84,246.2726,2.0897e-05,4.5e-07,0.0,0 STARLINK-3576,1 51883U 22022AH  23025.57042140  .00000045  00000-0  20897-4 0  9997,2 51883  53.2150  72.8271 0001282 113.8400 246.2726 15.08830436 51272,6917.91,95.438,540.661,538.888,0.0
51883.0,STARLINK-3576,PAYLOAD,2023-01-26 08:46:01,15.08860204,0.0001174,53.2152,69.2609,104.0619,256.0504,0.00056051,8.649e-05,0.0,0 STARLINK-3576,1 51883U 22022AH  23026.36529033  .00008649  00000-0  56051-3 0  9994,2 51883  53.2152  69.2609 0001174 104.0619 256.0504 15.08860204 51395,6917.819,95.436,540.496,538.871,0.0
51883.0,STARLINK-3576,PAYLOAD,2023-01-26 10:21:24,15.08864861,0.0001192,53.2152,68.9636,103.5945,256.518,0.00077483,0.00012073,0.0,0 STARLINK-3576,1 51883U 22022AH  23026.43153009  .00012073  00000-0  77483-3 0  9996,2 51883  53.2152  68.9636 0001192 103.5945 256.5180 15.08864861 51407,6917.804,95.436,540.494,538.845,0.0
51883.0,STARLINK-3576,PAYLOAD,2023-01-26 19:53:43,15.08854405,0.0001364,53.2174,67.1786,92.8905,267.2243,0.00038683,5.876e-05,0.0,0 STARLINK-3576,1 51883U 22022AH  23026.82897165  .00005876  00000-0  38683-3 0  9999,2 51883  53.2174  67.1786 0001364  92.8905 267.2243 15.08854405 51463,6917.835999999999,95.437,540.645,538.758,0.0
51883.0,STARLINK-3576,PAYLOAD,2023-01-27 02:15:15,15.08847139,0.0001683,53.2151,65.9898,88.255,271.8634,0.00011297,1.511e-05,0.0,0 STARLINK-3576,1 51883U 22022AH  23027.09393399  .00001511  00000-0  11297-3 0  9993,2 51883  53.2151  65.9898 0001683  88.2550 271.8634 15.08847139 51503,6917.859,95.437,540.888,538.559,0.0
51883.0,STARLINK-3576,PAYLOAD,2023-01-27 11:47:34,15.08846954,0.0001334,53.2159,64.2055,85.4548,274.6597,0.00016242,2.298e-05,0.0,0 STARLINK-3576,1 51883U 22022AH  23027.49137431  .00002298  00000-0  16242-3 0  9998,2 51883  53.2159  64.2055 0001334  85.4548 274.6597 15.08846954 51566,6917.859,95.437,540.6469999999999,538.8009999999999,0.0
